[{"OBJECT_NAME":"STARLINK-30160","OBJECT_ID":"2023-105M","EPOCH":"2026-03-09T22:00:01.999584","MEAN_MOTION":15.05884587,"ECCENTRICITY":7.91e-5,"INCLINATION":43.0005,"RA_OF_ASC_NODE":260.3896,"ARG_OF_PERICENTER":326.1958,"MEAN_ANOMALY":83.8385,"EPHEMERIS_TYPE":0,"CLASSIFICATION_TYPE":"U","NORAD_CAT_ID":57441,"ELEMENT_SET_NO":999,"REV_AT_EPOCH":558,"BSTAR":0.0048293503,"MEAN_MOTION_DOT":0.00071872,"MEAN_MOTION_DDOT":0},{"OBJECT_NAME":"COSMOS 886 DEB","OBJECT_ID":"1976-126H","EPOCH":"2026-03-09T13:45:20.274912","MEAN_MOTION":13.34259572,"ECCENTRICITY":0.0780969,"INCLINATION":65.7903,"RA_OF_ASC_NODE":130.587,"ARG_OF_PERICENTER":142.7819,"MEAN_ANOMALY":223.008,"EPHEMERIS_TYPE":0,"CLASSIFICATION_TYPE":"U","NORAD_CAT_ID":9651,"ELEMENT_SET_NO":999,"REV_AT_EPOCH":33873,"BSTAR":0.00068915,"MEAN_MOTION_DOT":1.985e-5,"MEAN_MOTION_DDOT":0}]
